IRIDIUM 150             
1 43257U 18030J   25334.72647573  .00000152  00000+0  47100-4 0  9994
2 43257  86.3984  13.4312 0002218 100.5343 259.6103 14.34217944401712
IRIDIUM 143             
1 43258U 18030K   25334.63768271  .00000160  00000+0  49946-4 0  9993
2 43258  86.3988  13.5532 0002253 102.2967 257.8481 14.34218169401632
IRIDIUM 161             
1 43478U 18047C   25334.81344917  .00000269  00000+0  73983-4 0  9990
2 43478  86.4510 171.3603 0002033  81.4888 278.6544 14.43286509396521
IRIDIUM 152             
1 43479U 18047D   25334.81970152  .00000168  00000+0  53016-4 0  9990
2 43479  86.3985 171.2183 0001915  83.4888 276.6526 14.34216765394050
IRIDIUM 147             
1 43480U 18047E   25334.61673403  .00000091  00000+0  25343-4 0  9996
2 43480  86.3986 171.3047 0002131  86.0176 274.1263 14.34218570394027
IRIDIUM 110             
1 43481U 18047F   25334.62307619  .00000280  00000+0  92899-4 0  9991
2 43481  86.3987 171.3884 0002024  73.4165 286.7253 14.34217023394016
IRIDIUM 162             
1 43482U 18047G   25334.80716499  .00000265  00000+0  72842-4 0  9991
2 43482  86.4508 171.2563 0001644  86.1777 273.9612 14.43281425396518
IRIDIUM 160             
1 43569U 18061A   25334.84799075  .00000002  00000+0 -61769-5 0  9995
2 43569  86.3971 139.7197 0002001  84.8608 275.2817 14.34217617384943
